{
  "type": "FeatureCollection",
  "features": [
    {
      "type": "Feature",
      "properties": {
        "norad_id": 54259,
        "name": "EUTELSAT 10B",
        "group": "eutelsat",
        "lat": -0.04814287863636898,
        "lon": -36.65770739789211,
        "alt_km": 35790.06335925356,
        "timestamp": "2025-12-08T15:42:49.450213+00:00",
        "meta_object_name": "EUTELSAT 10B",
        "meta_object_id": "2022-157A",
        "meta_epoch": "2025-12-08T06:48:14.145984",
        "meta_mean_motion": 1.002684,
        "meta_eccentricity": 8.883e-05,
        "meta_inclination": 0.062,
        "meta_ra_of_asc_node": 100.9204,
        "meta_arg_of_pericenter": 77.2749,
        "meta_mean_anomaly": 11.1371,
        "meta_ephemeris_type": 0,
        "meta_classification_type": "U",
        "meta_norad_cat_id": 54259,
        "meta_element_set_no": 999,
        "meta_rev_at_epoch": 1111,
        "meta_bstar": 0,
        "meta_mean_motion_dot": 7e-07,
        "meta_mean_motion_ddot": 0,
        "tle_line1": "1 54259U 22157A   25342.28349706  .00000070  00000+0  00000+0 0  9992",
        "tle_line2": "2 54259   0.0620 100.9204 0000888  77.2749  11.1371  1.00268400 11110"
      },
      "geometry": {
        "type": "Point",
        "coordinates": [
          -36.65770739789211,
          -0.04814287863636898
        ]
      }
    },
    {
      "type": "Feature",
      "properties": {
        "norad_id": 59346,
        "name": "EUTELSAT 36D",
        "group": "eutelsat",
        "lat": 0.012253673372446783,
        "lon": -10.768362852502008,
        "alt_km": 35783.60480803023,
        "timestamp": "2025-12-08T15:42:49.450225+00:00",
        "meta_object_name": "EUTELSAT 36D",
        "meta_object_id": "2024-059A",
        "meta_epoch": "2025-12-08T00:04:42.159936",
        "meta_mean_motion": 1.00270249,
        "meta_eccentricity": 7.397e-05,
        "meta_inclination": 0.0173,
        "meta_ra_of_asc_node": 323.6814,
        "meta_arg_of_pericenter": 0.9283,
        "meta_mean_anomaly": 149.4537,
        "meta_ephemeris_type": 0,
        "meta_classification_type": "U",
        "meta_norad_cat_id": 59346,
        "meta_element_set_no": 999,
        "meta_rev_at_epoch": 623,
        "meta_bstar": 0,
        "meta_mean_motion_dot": 1.59e-06,
        "meta_mean_motion_ddot": 0,
        "tle_line1": "1 59346U 24059A   25342.00326574  .00000159  00000+0  00000+0 0  9993",
        "tle_line2": "2 59346   0.0173 323.6814 0000739   0.9283 149.4537  1.00270249  6237"
      },
      "geometry": {
        "type": "Point",
        "coordinates": [
          -10.768362852502008,
          0.012253673372446783
        ]
      }
    }
  ]
}